CCSDS_OMM_VERS = 2.0
CREATION_DATE  = 
ORIGINATOR     = 

OBJECT_NAME    = STARLINK-36565
OBJECT_ID      = 2026-014N
CENTER_NAME    = EARTH
REF_FRAME      = TEME
TIME_SYSTEM    = UTC
MEAN_ELEMENT_THEORY = SGP/SGP4

EPOCH          = 2026-02-20T15:52:16.273344
MEAN_MOTION    = 15.75236286
ECCENTRICITY   = .00012307
INCLINATION    = 97.2837
RA_OF_ASC_NODE = 295.7694
ARG_OF_PERICENTER = 101.0198
MEAN_ANOMALY   = 259.1205

EPHEMERIS_TYPE = 0
CLASSIFICATION_TYPE = U
NORAD_CAT_ID   = 67544
ELEMENT_SET_NO = 999
REV_AT_EPOCH   = 589
BSTAR          = .13622064E-2
MEAN_MOTION_DOT = .208507E-2
MEAN_MOTION_DDOT = 0

CCSDS_OMM_VERS = 2.0
CREATION_DATE  = 
ORIGINATOR     = 

OBJECT_NAME    = STARLINK-36583
OBJECT_ID      = 2026-014P
CENTER_NAME    = EARTH
REF_FRAME      = TEME
TIME_SYSTEM    = UTC
MEAN_ELEMENT_THEORY = SGP/SGP4

EPOCH          = 2026-02-20T05:46:27.986016
MEAN_MOTION    = 15.75207261
ECCENTRICITY   = .0001702
INCLINATION    = 97.2832
RA_OF_ASC_NODE = 295.2653
ARG_OF_PERICENTER = 82.0292
MEAN_ANOMALY   = 278.1166

EPHEMERIS_TYPE = 0
CLASSIFICATION_TYPE = U
NORAD_CAT_ID   = 67545
ELEMENT_SET_NO = 999
REV_AT_EPOCH   = 582
BSTAR          = .10342E-2
MEAN_MOTION_DOT = .157113E-2
MEAN_MOTION_DDOT = 0

CCSDS_OMM_VERS = 2.0
CREATION_DATE  = 
ORIGINATOR     = 

OBJECT_NAME    = STARLINK-36580
OBJECT_ID      = 2026-014Q
CENTER_NAME    = EARTH
REF_FRAME      = TEME
TIME_SYSTEM    = UTC
MEAN_ELEMENT_THEORY = SGP/SGP4

EPOCH          = 2026-02-20T16:00:54.733824
MEAN_MOTION    = 15.75331529
ECCENTRICITY   = .00013353
INCLINATION    = 97.2836
RA_OF_ASC_NODE = 295.7602
ARG_OF_PERICENTER = 93.9344
MEAN_ANOMALY   = 266.2074

EPHEMERIS_TYPE = 0
CLASSIFICATION_TYPE = U
NORAD_CAT_ID   = 67546
ELEMENT_SET_NO = 999
REV_AT_EPOCH   = 589
BSTAR          = .25533957E-2
MEAN_MOTION_DOT = .401654E-2
MEAN_MOTION_DDOT = 0

CCSDS_OMM_VERS = 2.0
CREATION_DATE  = 
ORIGINATOR     = 

OBJECT_NAME    = STARLINK-36584
OBJECT_ID      = 2026-014R
CENTER_NAME    = EARTH
REF_FRAME      = TEME
TIME_SYSTEM    = UTC
MEAN_ELEMENT_THEORY = SGP/SGP4

EPOCH          = 2026-02-20T15:35:31.166592
MEAN_MOTION    = 15.75208192
ECCENTRICITY   = .00014113
INCLINATION    = 97.2846
RA_OF_ASC_NODE = 295.7826
ARG_OF_PERICENTER = 117.7749
MEAN_ANOMALY   = 242.3660

EPHEMERIS_TYPE = 0
CLASSIFICATION_TYPE = U
NORAD_CAT_ID   = 67547
ELEMENT_SET_NO = 999
REV_AT_EPOCH   = 589
BSTAR          = .152227E-2
MEAN_MOTION_DOT = .233426E-2
MEAN_MOTION_DDOT = 0

CCSDS_OMM_VERS = 2.0
CREATION_DATE  = 
ORIGINATOR     = 

OBJECT_NAME    = STARLINK-36586
OBJECT_ID      = 2026-014S
CENTER_NAME    = EARTH
REF_FRAME      = TEME
TIME_SYSTEM    = UTC
MEAN_ELEMENT_THEORY = SGP/SGP4

EPOCH          = 2026-02-20T15:07:51.160800
MEAN_MOTION    = 15.80895634
ECCENTRICITY   = .00021345
INCLINATION    = 97.2833
RA_OF_ASC_NODE = 295.8105
ARG_OF_PERICENTER = 123.5459
MEAN_ANOMALY   = 236.6013

EPHEMERIS_TYPE = 0
CLASSIFICATION_TYPE = U
NORAD_CAT_ID   = 67548
ELEMENT_SET_NO = 999
REV_AT_EPOCH   = 589
BSTAR          = .1114072E-2
MEAN_MOTION_DOT = .219515E-2
MEAN_MOTION_DDOT = 0

CCSDS_OMM_VERS = 2.0
CREATION_DATE  = 
ORIGINATOR     = 

OBJECT_NAME    = STARLINK-36564
OBJECT_ID      = 2026-014T
CENTER_NAME    = EARTH
REF_FRAME      = TEME
TIME_SYSTEM    = UTC
MEAN_ELEMENT_THEORY = SGP/SGP4

EPOCH          = 2026-02-20T16:12:36.011520
MEAN_MOTION    = 15.75332892
ECCENTRICITY   = .00023373
INCLINATION    = 97.2844
RA_OF_ASC_NODE = 295.7501
ARG_OF_PERICENTER = 118.8840
MEAN_ANOMALY   = 241.2660

EPHEMERIS_TYPE = 0
CLASSIFICATION_TYPE = U
NORAD_CAT_ID   = 67549
ELEMENT_SET_NO = 999
REV_AT_EPOCH   = 583
BSTAR          = .24626809E-2
MEAN_MOTION_DOT = .386707E-2
MEAN_MOTION_DDOT = 0

CCSDS_OMM_VERS = 2.0
CREATION_DATE  = 
ORIGINATOR     = 

OBJECT_NAME    = STARLINK-36563
OBJECT_ID      = 2026-014U
CENTER_NAME    = EARTH
REF_FRAME      = TEME
TIME_SYSTEM    = UTC
MEAN_ELEMENT_THEORY = SGP/SGP4

EPOCH          = 2026-02-20T16:06:30.181824
MEAN_MOTION    = 15.75339821
ECCENTRICITY   = .00018098
INCLINATION    = 97.2848
RA_OF_ASC_NODE = 295.7538
ARG_OF_PERICENTER = 79.8249
MEAN_ANOMALY   = 280.3221

EPHEMERIS_TYPE = 0
CLASSIFICATION_TYPE = U
NORAD_CAT_ID   = 67550
ELEMENT_SET_NO = 999
REV_AT_EPOCH   = 589
BSTAR          = .25214924E-2
MEAN_MOTION_DOT = .396527E-2
MEAN_MOTION_DDOT = 0

CCSDS_OMM_VERS = 2.0
CREATION_DATE  = 
ORIGINATOR     = 

OBJECT_NAME    = STARLINK-36566
OBJECT_ID      = 2026-014V
CENTER_NAME    = EARTH
REF_FRAME      = TEME
TIME_SYSTEM    = UTC
MEAN_ELEMENT_THEORY = SGP/SGP4

EPOCH          = 2026-02-20T16:03:27.168480
MEAN_MOTION    = 15.75333845
ECCENTRICITY   = .0001568
INCLINATION    = 97.2839
RA_OF_ASC_NODE = 295.7574
ARG_OF_PERICENTER = 111.2696
MEAN_ANOMALY   = 248.8737

EPHEMERIS_TYPE = 0
CLASSIFICATION_TYPE = U
NORAD_CAT_ID   = 67551
ELEMENT_SET_NO = 999
REV_AT_EPOCH   = 588
BSTAR          = .25329002E-2
MEAN_MOTION_DOT = .398306E-2
MEAN_MOTION_DDOT = 0

CCSDS_OMM_VERS = 2.0
CREATION_DATE  = 
ORIGINATOR     = 

OBJECT_NAME    = STARLINK-36567
OBJECT_ID      = 2026-014W
CENTER_NAME    = EARTH
REF_FRAME      = TEME
TIME_SYSTEM    = UTC
MEAN_ELEMENT_THEORY = SGP/SGP4

EPOCH          = 2026-02-20T05:35:17.515968
MEAN_MOTION    = 15.75167835
ECCENTRICITY   = .0002312
INCLINATION    = 97.2843
RA_OF_ASC_NODE = 295.2738
ARG_OF_PERICENTER = 78.3497
MEAN_ANOMALY   = 281.8028

EPHEMERIS_TYPE = 0
CLASSIFICATION_TYPE = U
NORAD_CAT_ID   = 67552
ELEMENT_SET_NO = 999
REV_AT_EPOCH   = 581
BSTAR          = .16165E-2
MEAN_MOTION_DOT = .247883E-2
MEAN_MOTION_DDOT = 0

CCSDS_OMM_VERS = 2.0
CREATION_DATE  = 
ORIGINATOR     = 

OBJECT_NAME    = STARLINK-36569
OBJECT_ID      = 2026-014X
CENTER_NAME    = EARTH
REF_FRAME      = TEME
TIME_SYSTEM    = UTC
MEAN_ELEMENT_THEORY = SGP/SGP4

EPOCH          = 2026-02-20T15:38:02.527296
MEAN_MOTION    = 15.75232831
ECCENTRICITY   = .00013543
INCLINATION    = 97.2846
RA_OF_ASC_NODE = 295.7781
ARG_OF_PERICENTER = 103.7089
MEAN_ANOMALY   = 256.4327

EPHEMERIS_TYPE = 0
CLASSIFICATION_TYPE = U
NORAD_CAT_ID   = 67553
ELEMENT_SET_NO = 999
REV_AT_EPOCH   = 588
BSTAR          = .13150047E-2
MEAN_MOTION_DOT = .201071E-2
MEAN_MOTION_DDOT = 0

CCSDS_OMM_VERS = 2.0
CREATION_DATE  = 
ORIGINATOR     = 

OBJECT_NAME    = STARLINK-36395
OBJECT_ID      = 2026-014Y
CENTER_NAME    = EARTH
REF_FRAME      = TEME
TIME_SYSTEM    = UTC
MEAN_ELEMENT_THEORY = SGP/SGP4

EPOCH          = 2026-02-20T16:07:31.054944
MEAN_MOTION    = 15.75334088
ECCENTRICITY   = .00016706
INCLINATION    = 97.2840
RA_OF_ASC_NODE = 295.7489
ARG_OF_PERICENTER = 100.7051
MEAN_ANOMALY   = 259.4403

EPHEMERIS_TYPE = 0
CLASSIFICATION_TYPE = U
NORAD_CAT_ID   = 67554
ELEMENT_SET_NO = 999
REV_AT_EPOCH   = 588
BSTAR          = .24589336E-2
MEAN_MOTION_DOT = .386114E-2
MEAN_MOTION_DDOT = 0

CCSDS_OMM_VERS = 2.0
CREATION_DATE  = 
ORIGINATOR     = 

OBJECT_NAME    = STARLINK-36559
OBJECT_ID      = 2026-014Z
CENTER_NAME    = EARTH
REF_FRAME      = TEME
TIME_SYSTEM    = UTC
MEAN_ELEMENT_THEORY = SGP/SGP4

EPOCH          = 2026-02-20T16:09:33.095808
MEAN_MOTION    = 15.75274656
ECCENTRICITY   = .0002407
INCLINATION    = 97.2840
RA_OF_ASC_NODE = 295.7467
ARG_OF_PERICENTER = 114.0751
MEAN_ANOMALY   = 246.0766

EPHEMERIS_TYPE = 0
CLASSIFICATION_TYPE = U
NORAD_CAT_ID   = 67555
ELEMENT_SET_NO = 999
REV_AT_EPOCH   = 588
BSTAR          = .16017533E-2
MEAN_MOTION_DOT = .246724E-2
MEAN_MOTION_DDOT = 0

